#dP2018  1 13  0  0  0.00000000      96 __u+U ITR00 FIT  IAC
## 1983 518400.00000000   900.00000000 58131 0.0000000000000
+   88   C01C02C03C04C05C06C07C08C09C10C11C12C13C14E01E02E03
+        E04E05E07E08E09E11E12E14E18E19E24E26E30G01G02G03G04
+        G05G06G07G08G09G10G11G12G13G14G15G16G17G18G19G20G21
+        G22G23G24G25G26G27G28G29G30G31G32J01J02R01R02R03R04
+        R05R06R07R08R09R10R11R13R14R15R16R17R18R19R20R21R22
+        R23R24R26  0  0  0  0  0  0  0  0  0  0  0  0  0  0
++         0  0  0  0  0  0  0  0  0  0  0  0  0  0  0  0  0
++         0  0  0  0  0  0  0  0  0  0  0  0  0  0  0  0  0
++         0  0  0  0  0  0  0  0  0  0  0  0  0  0  0  0  0
++         0  0  0  0  0  0  0  0  0  0  0  0  0  0  0  0  0
++         0  0  0  0  0  0  0  0  0  0  0  0  0  0  0  0  0
++         0  0  0  0  0  0  0  0  0  0  0  0  0  0  0  0  0
%c M  cc GPS ccc cccc cccc cccc cccc ccccc ccccc ccccc ccccc
%c cc cc ccc ccc cccc cccc cccc cccc ccccc ccccc ccccc ccccc
%f  0.0000000  0.000000000  0.00000000000  0.000000000000000
%f  0.0000000  0.000000000  0.00000000000  0.000000000000000
%i    0    0    0    0      0      0      0      0         0
%i    0    0    0    0      0      0      0      0         0
/*                                                          
/*   RSA / INFORMATION & ANALYSIS CENTER (IAC) OF MCC       
/*   ULTRA-RAPID DETERMINATION                              
/* PCV:IGS14_1977 OL/AL:FES2004  NONE     YN ORB:CoN CLK:CoN
*  2018 01 13 23 45  0.00000000
PC01 -32298.790747  27072.896696   -915.797397    236.159631
PC02   4409.341649  41918.787910   1050.443814   -152.261765
PC03 -14725.285667  39527.108970    -96.036126   -289.366807
PC04 -39598.483162  14395.702200   -400.122724   -192.233988
PC05  21892.539601  36027.115224   1422.751164   -119.841836
PC06  -9978.508853  35684.305226  20634.952154   -673.395568
PC07 -15925.163871  20848.046140 -32935.038778   -273.595948
PC08 -24953.901308  30996.419089  13692.995927    112.535827
PC09   -957.124633  41725.422376   7178.604875   -505.746086
PC10   1058.491402  26397.200145 -32688.267791     58.012722
PC11  16014.459585 -22129.743737   5973.971263   -351.626035
PC12  18145.668602  -5373.924909  20602.686030    371.105207
PC13 -12124.452341  31769.137729  24797.837521   -144.525260
PC14  10230.990207 -13091.966173 -22365.966295    139.520429
PE01 -26608.510874    846.804593 -12934.244951   -252.500029
PE02  26608.399240   -862.371422  12956.069524      1.647715
PE03  16418.029981  -5144.777480 -24090.974363     12.861223
PE04  -6385.976861  23850.087810  16326.950754     44.562999
PE05  16858.760858  16637.836992 -17758.622274    342.229057
PE07  -7428.746646 -28636.980093   1041.851199    102.431197
PE08   6076.545345 -23867.101251 -16428.627771   6661.871837
PE09   7667.176950  28567.268008   -977.920274   6904.275460
PE11    255.670530  20073.042589  21761.279941   1853.480961
PE12 -17012.034808  23105.373779   7312.487165   3275.555942
PE14 -11483.074751 -19840.891760 -20059.256481   6648.318157
PE18    227.056895  25021.403471   9206.111770   6505.995867
PE19 -16786.660221   2977.004468  24192.771131     18.325402
PE24  11060.301183  17668.361147 -21031.179389   6917.995571
PE26 -17246.593741  -5566.927365 -23393.488095   6389.112643
PE30  10983.014378 -13137.917285  24141.634771   6162.448192
PG01  -1637.675950 -15165.215219 -21856.683261    -23.411910
PG02 -19771.841380  14885.632018   9780.461407    228.961389
PG03  -9904.742934 -21148.972440 -12714.966683    -10.369165
PG04  20015.465450   3491.658992  17023.762223     31.616117
PG05  -9402.631865  12293.681324  21475.691005    -17.033981
PG06 -25559.349011   7090.769671  -1461.717109    414.741789
PG07 -17833.195565  -8122.195881  18331.004203    251.931417
PG08   5160.960047 -25979.858871   -398.118646    -87.566916
PG09 -10133.495524 -16026.061622  18558.439969    492.788230
PG10  21876.109035   7440.982761 -13198.406915    145.584898
PG11    939.602431 -19867.760127 -18221.666677   -733.891271
PG12   6771.168347  21148.052264 -14893.762112    355.619700
PG13 -12338.336769  22704.326991   6049.836937    -95.314419
PG14  16232.214771 -10526.660694 -17845.167936    -92.334450
PG15  -2273.868906  26199.100372  -1837.774379   -357.357010
PG16   9435.189678 -11159.268310  22020.950773     34.099061
PG17 -15074.416429    752.746352 -21456.163948   -131.067066
PG18  21418.363120  15637.628867  -2029.103759    633.564341
PG19 -16466.823729   9102.502089 -19109.957400   -463.866093
PG20   9100.525963  20235.013709  14484.914807    498.225558
PG21  19519.390877   6491.188115  17625.464474   -442.068487
PG22  -3382.044787 -19655.697937 -17291.116295   -255.992010
PG23  -2905.469311 -24026.150221  10696.908810   -219.081139
PG24  -1373.288739  16521.522683 -20804.205004    -44.731430
PG25  17411.596027  19835.266362  -4114.092606   -521.890457
PG26  17616.260458  -2928.491029  19700.449952   -288.456847
PG27  12266.379078 -20493.348227  11299.386420    362.386502
PG28 -20734.489436 -12422.282524 -10330.856986    679.599446
PG29   5827.195885  19906.557751  16590.301557    511.529628
PG30 -23882.169282  -2459.684745  11519.795940    112.770550
PG31  25839.868793  -7067.575741   -287.692399    148.829689
PG32  15765.593216  -2172.116376 -21231.904864   -532.781652
PJ01 -26074.818166  22201.509021  29702.937214   -156.954509
PJ02 -32995.471337  17283.141999 -15329.832335      0.016575
PR01 -12795.436084  -2976.776187  21862.029456     20.635134
PR02  -3291.235268  16217.158270  19459.673165    290.043071
PR03   7305.185285  23942.877265   5042.315012    121.286566
PR04  13756.269641  17346.712104 -12675.520169    245.896179
PR05  12290.135102   1182.928745 -22334.049989   -229.454166
PR06   2689.804222 -16920.085428 -18904.037520    125.100614
PR07  -7516.848307 -23919.467736  -4573.356379    -27.399115
PR08 -13653.238133 -17786.187743  12204.549883    -26.993471
PR09  13207.407896  -7935.622516  20324.231011     47.805409
PR10  -6295.562753 -11125.330082  22069.119899     15.863908
PR11 -21862.111774  -8135.677532  10380.620057    -19.328543
PR13 -12240.499691   8241.624564 -20822.447908     -6.495834
PR14   5860.808657  11337.727421 -22071.144008     23.830390
PR15  19766.244905   9049.270974 -13423.218378     -5.168952
PR16  24733.220458    -14.596373   6460.681123     83.217157
PR17  -5110.554266  18874.383238  16373.567607    100.808421
PR18   7810.254307   7257.976306  23193.058162    180.986401
PR19  16909.522530  -8605.792760  17055.774078    -41.123894
PR20  15994.678683 -19837.053386   -169.642481   -323.288378
PR21   5016.560588 -18792.020894 -16511.787821     18.741944
PR22  -9098.943713  -5498.503374 -23181.120035    -10.031358
PR23 -17453.269920  11534.185160 -14597.154683    130.111168
PR24 -15435.751854  20301.269364    768.736821   -161.041673
PR26  15648.174600 -20159.823965   -127.786536     -6.901426
EOF
